SPACEBEE-5              
1 43817U 18099BM  22238.43256772  .00002959  00000+0  22966-3 0  9995
2 43817  97.6279 308.3506 0006344  35.6277 324.5370 15.02101191203276
SPACEBEE-6              
1 43818U 18099BN  22238.92084872  .00002046  00000+0  17275-3 0  9994
2 43818  97.6248 306.4880 0011636  20.7527 339.4167 14.99171226203393
SHIELDS 1               
1 43850U 18104B   22238.70674088  .00001883  00000+0  75944-4 0  9993
2 43850  85.0316   5.5822 0014319  15.9838 344.1854 15.23983658205207
STF-1                   
1 43852U 18104D   22238.77200921  .00005019  00000+0  18328-3 0  9990
2 43852  85.0340   5.6341 0013054  26.6962 333.4953 15.27760760205274
ZACUBE-2                
1 43907U 18111AH  22238.89702111  .00003394  00000+0  12382-3 0  9998
2 43907  97.1810 122.7029 0019211 183.5627 242.6188 15.28641483204054
LUME 1                  
1 43908U 18111AJ  22238.57784776  .00004272  00000+0  14242-3 0  9994
2 43908  97.1814 124.1978 0018054 176.9557 183.1798 15.31458213204125
AOBA VELOX-IV           
1 43940U 19003J   22238.83330387  .00011745  00000+0  28956-3 0  9995
2 43940  97.1209 272.7421 0014642 244.2313 115.7424 15.40590920200956
MOVE-IIB                
1 44398U 19038N   22238.89885400  .00005777  00000+0  27108-3 0  9994
2 44398  97.6359 208.9617 0018910 240.1214 119.8137 15.19900463173734
SONATE                  
1 44400U 19038Q   22238.86916931  .00002242  00000+0  12268-3 0  9994
2 44400  97.6451 207.7339 0021469 247.9932 111.9015 15.15149041173599
LUCKY-7                 
1 44406U 19038W   22238.82269330  .00002343  00000+0  12445-3 0  9999
2 44406  97.6441 208.2780 0020629 245.7317 114.1761 15.16171353173629
BEESAT 9                
1 44412U 19038AC  22238.68560931  .00003314  00000+0  16708-3 0  9996
2 44412  97.6408 208.5492 0017947 249.1468 110.7844 15.17744622173345
JAISAT-1                
1 44419U 19038F   22238.91305316  .00003482  00000+0  17306-3 0  9994
2 44419  97.6412 209.6705 0016991 244.9456 115.0014 15.18220554173749
DUCHIFAT-3              
1 44854U 19089C   22238.89813826  .00001817  00000+0  14413-3 0  9996
2 44854  36.9671  42.5956 0007426  63.6070  64.8654 15.01444797148526
EYESAT-NANO             
1 44877U 19092E   22238.74430576  .00004667  00000+0  19726-3 0  9994
2 44877  97.4644  62.6817 0012523 108.1702 252.0900 15.23660367149065
ORBITAL FACTORY 2 (OF-2)
1 45113U 19071C   22238.91110454  .00015063  00000+0  28547-3 0  9997
2 45113  51.6371  71.8790 0008812  76.3750 283.8220 15.48519237144287
M2 PATHFINDER           
1 45727U 20037E   22238.43138295  .00000542  00000+0  58661-4 0  9999
2 45727  97.7398  52.6388 0013155 158.9843 201.1912 14.92169072117269
NETSAT-4                
1 46504U 20068U   22238.45252860  .00002156  00000+0  16145-3 0  9997
2 46504  97.7268 178.1303 0013383  85.1444 275.1303 15.03723049104568
NETSAT-3                
1 46505U 20068V   22238.40333285  .00000798  00000+0  62753-4 0  9991
2 46505  97.7275 177.9920 0012921  95.2412 265.0279 15.03672847104562
NETSAT-1                
1 46506U 20068W   22238.42233269  .00001276  00000+0  97694-4 0  9999
2 46506  97.7275 177.9350 0011785 106.1438 254.1085 15.03625713104561
NETSAT-2                
1 46507U 20068X   22238.49934168  .00001693  00000+0  12827-3 0  9990
2 46507  97.7269 178.0012 0010606 111.5972 248.6350 15.03609929104526
SAI-1 NANOCONNECT-2     
1 47701U 21015C   22238.24734515  .00005065  00000+0  18493-3 0  9999
2 47701  97.4204 314.8854 0010601 199.5863 160.4971 15.28531022 82871
BEESAT-6                
1 47957U 21022AB  22238.95489674  .00002665  00000+0  17048-3 0  9999
2 47957  97.5210 137.1918 0018136 264.8020 150.7869 15.09334900 78431
SMOG-1                  
1 47964U 21022AJ  22238.46570520  .00003103  00000+0  19039-3 0  9994
2 47964  97.5226 137.9062 0016355 254.3503 105.5922 15.10763313 77450
MMSATS-1                
1 47976U 98067SJ  22238.91756056  .00014260  00000+0  16619-3 0  9997
2 47976  51.6420 330.3055 0001466 311.9216 161.1456 15.61943414 81261
BCCSAT-1                
1 48041U 21022AK  22238.75651107  .00002293  00000+0  14542-3 0  9997
2 48041  97.5225 137.7259 0013118 251.2687 108.7119 15.09853349 77444
BEESAT-5                
1 48083U 21022AM  22238.55465544  .00003410  00000+0  21588-3 0  9999
2 48083  97.5184 136.8063 0018149 267.4822 214.5992 15.09518868 77502
BEESAT-7                
1 48084U 21022AN  22238.94760708  .00002861  00000+0  18234-3 0  9996
2 48084  97.5216 137.1967 0018035 265.5444 150.3062 15.09404241 77154
BEESAT-8                
1 48085U 21022AP  22237.95738748  .00002939  00000+0  18779-3 0  9996
2 48085  97.5181 136.2162 0018073 269.0137 146.4262 15.09290203 77567
RAMSAT                  
1 48850U 98067SL  22238.91987413  .00089218  00000+0  41530-3 0  9997
2 48850  51.6355 314.7119 0006480 352.4473   7.6431 15.82581040 68441
BD-28                   
1 48867U 98067SN  22238.65577529  .00232537  32444-4  56184-3 0  9996
2 48867  51.6228 309.7488 0009582   0.9137 359.1887 15.95847441 67239
BINAR-1                 
1 49272U 98067SR  22238.63907970  .00121534  00000+0  48779-3 0  9995
2 49272  51.6300 319.5171 0005682 339.0955  20.9816 15.85581940 50741
CUAVA-1                 
1 49275U 98067SU  22238.78464442  .01080209  79965-3  75929-3 0  9997
2 49275  51.6220 310.3301 0012147 349.9045 111.8727 16.15557577 50826
HSU-SAT1                
1 53462U 98067UB  22238.38404065  .00016788  00000+0  28480-3 0  9991
2 53462  51.6423 348.7084 0006479 186.4547 173.6361 15.51601768  2186
FUTABA                  
1 53463U 98067UC  22238.70512843  .00020543  00000+0  34452-3 0  9992
2 53463  51.6425 347.1039 0006282 189.3575 170.7299 15.51772527  2233
TUMNANOSAT              
1 53464U 98067UD  22238.38217473  .00022588  00000+0  37598-3 0  9993
2 53464  51.6423 348.6963 0006428 189.0737 171.0137 15.51918794  2180
BEIJING 1               
1 28890U 05043A   22238.78776153  .00000010  00000+0  11560-4 0  9997
2 28890  98.1261 359.9284 0014203 317.6138  42.3964 14.61480842897410
HJ-1A                   
1 33320U 08041A   22238.90249988  .00000176  00000+0  31127-4 0  9991
2 33320  97.6744 268.6448 0021304   7.1404 353.0091 14.77896433752797
HJ-1B                   
1 33321U 08041B   22238.92048195  .00000467  00000+0  71280-4 0  9998
2 33321  97.6912 272.3692 0034909  23.4736 336.8040 14.77837260752798
YAOGAN 4                
1 33446U 08061A   22238.40770674  .00000171  00000+0  30976-4 0  9994
2 33446  97.8189 176.4184 0014712 267.9372  92.0154 14.77440737739921
DEIMOS-1                
1 35681U 09041A   22238.88387586  .00000174  00000+0  34922-4 0  9992
2 35681  97.7081  86.3219 0002175  41.6148 318.5229 14.72094525702137
UK-DMC 2                
1 35683U 09041C   22238.73587462  .00000286  00000+0  53547-4 0  9991
2 35683  97.7034  48.0263 0001850  75.1229 285.0184 14.71470358701848
RISAT 1                 
1 38248U 12017A   22238.94002926  .00001356  00000+0  82026-4 0  9991
2 38248  97.5532 249.5497 0004748  38.1373 322.0192 15.12310806569473
DMC3-FM1                
1 40715U 15032A   22238.94786111  .00000180  00000+0  29152-4 0  9993
2 40715  97.8373 124.3502 0004711 299.5096  60.5644 14.82172987383734
DMC3-FM2                
1 40716U 15032B   22238.90321838  .00000198  00000+0  31396-4 0  9993
2 40716  97.8414 124.9848 0006718 299.8311  60.2227 14.82165189383732
DMC3-FM3                
1 40717U 15032C   22238.92498627  .00000180  00000+0  29120-4 0  9990
2 40717  97.8449 125.9477 0008609 295.9347  64.0979 14.82192987383739
NOAA 15                 
1 25338U 98030A   22238.92926691  .00000092  00000+0  56433-4 0  9997
2 25338  98.6408 267.5308 0011563  92.5553 267.6951 14.26164558263069
DMSP 5D-3 F15 (USA 147) 
1 25991U 99067A   22238.96552059  .00000071  00000+0  58875-4 0  9999
2 25991  99.0571 231.7601 0010045 355.2898  59.0220 14.16563594173754
METEOSAT-8 (MSG-1)      
1 27509U 02040B   22238.57271519  .00000134  00000+0  00000+0 0  9999
2 27509   8.1634  50.2570 0001367 122.6364  49.4658  1.00271887 73311
DMSP 5D-3 F16 (USA 172) 
1 28054U 03048A   22238.94644177 -.00000007  00000+0  20385-4 0  9992
2 28054  98.9930 230.1337 0008319 114.0099 300.0090 14.13679178972998
NOAA 18                 
1 28654U 05018A   22238.88759599  .00000091  00000+0  73269-4 0  9996
2 28654  98.9449 309.2542 0015177 130.3665 229.8834 14.12768090889920
METEOSAT-9 (MSG-2)      
1 28912U 05049B   22238.80320807  .00000126  00000+0  00000+0 0  9992
2 28912   6.1724  65.8320 0000849 200.1867  43.8060  1.00270947 61090
EWS-G1 (GOES 13)        
1 29155U 06018A   22238.90813192  .00000033  00000+0  00000+0 0  9991
2 29155   0.7631  96.3435 0005797 104.0744 163.0948  1.00275154 29433
DMSP 5D-3 F17 (USA 191) 
1 29522U 06050A   22238.90396674  .00000000  00000+0  22975-4 0  9990
2 29522  98.7668 252.6372 0010932  64.1443 296.0856 14.14107419815866
FENGYUN 3A              
1 32958U 08026A   22238.92279766  .00000017  00000+0  28424-4 0  9999
2 32958  98.5085 198.6951 0008742 171.8103 188.3217 14.18734630738213
FENGYUN 2E              
1 33463U 08066A   22238.90519361 -.00000202  00000+0  00000+0 0  9993
2 33463   6.0573  64.8917 0002447  26.1455 296.4232  1.00265869 50142
NOAA 19                 
1 33591U 09005A   22238.89683433  .00000119  00000+0  89441-4 0  9996
2 33591  99.1438 274.4981 0013709 354.6305   5.4717 14.12602255698137
GOES 14                 
1 35491U 09033A   22238.62606608 -.00000096  00000+0  00000+0 0  9992
2 35491   0.4774  94.0134 0015053 119.7892 241.8996  1.00272541 48179
METEOR-M 1              
1 35865U 09049A   22238.60167321  .00000015  00000+0  25705-4 0  9990
2 35865  98.5344 206.8296 0003044  43.7449 316.3970 14.22351624671516
DMSP 5D-3 F18 (USA 210) 
1 35951U 09057A   22238.90600335  .00000162  00000+0  10895-3 0  9991
2 35951  98.7280 216.5749 0009912 244.3439 115.6710 14.13544687663080
